OBJECT_NAME,OBJECT_ID,EPOCH,MEAN_MOTION,ECCENTRICITY,INCLINATION,RA_OF_ASC_NODE,ARG_OF_PERICENTER,MEAN_ANOMALY,EPHEMERIS_TYPE,CLASSIFICATION_TYPE,NORAD_CAT_ID,ELEMENT_SET_NO,REV_AT_EPOCH,BSTAR,MEAN_MOTION_DOT,MEAN_MOTION_DDOT
JILIN-1 GAOFEN 3A,2019-032C,2026-06-09T21:57:51.488928,15.32473415,.00065268,44.9761,36.9538,260.6371,99.3776,0,U,44312,999,38672,.35355135E-3,.11014E-3,0
WT 1B,2019-032G,2026-06-09T22:31:32.124000,15.27043313,.00093791,44.9726,100.5004,211.9670,148.0645,0,U,44316,999,38597,.33975626E-3,.8909E-4,0
PROX-1,2019-036A,2026-06-09T16:38:13.525440,14.90432736,.00052764,23.9926,164.3071,306.6021,53.3993,0,U,44339,999,37235,.11444084E-2,.11722E-3,0
NPSAT1,2019-036B,2026-06-09T14:32:12.342624,14.74514746,.00078687,23.9993,267.1376,121.1024,239.0245,0,U,44340,999,37137,.62347744E-3,.4488E-4,0
FORMOSAT 7-3,2019-036E,2026-06-09T12:25:02.578080,15.09750740,.00008879,23.9985,231.3301,150.2032,209.8522,0,U,44343,999,38208,.2101684E-3,.3827E-4,0
FORMOSAT 7-1,2019-036L,2026-06-09T10:41:41.039232,14.96472068,.00010238,23.9980,84.5814,90.4732,269.5886,0,U,44349,999,38349,.18359906E-3,.2438E-4,0
FORMOSAT 7-4,2019-036M,2026-06-09T06:25:56.690400,14.96465427,.0001512,23.9968,147.8868,99.2720,260.7952,0,U,44350,999,38288,.16586E-3,.2232E-4,0
FORMOSAT 7-2,2019-036N,2026-06-09T10:10:09.909984,14.96469029,.00010422,23.9972,201.1555,96.3518,263.7102,0,U,44351,999,38242,.15447227E-3,.2099E-4,0
FORMOSAT 7-6,2019-036Q,2026-06-09T06:57:52.027200,14.96476149,.00011921,23.9992,22.8667,20.8011,339.2538,0,U,44353,999,38063,.18482202E-3,.2452E-4,0
FORMOSAT 7-5,2019-036V,2026-06-09T17:37:17.364000,14.96486054,.00006863,23.9998,318.6256,85.9693,274.0886,0,U,44358,999,38123,.19200612E-3,.2536E-4,0
METEOR-M2 2,2019-038A,2026-06-09T22:32:15.436320,14.24364704,.00022529,98.9146,148.1173,60.1127,300.0275,0,U,44387,999,36026,.13565728E-3,.268E-5,0
GLOBAL-4,2019-054E,2026-06-09T19:07:34.746816,15.63696220,.0006478,45.0063,279.0222,294.1609,65.8611,0,U,44499,999,37920,.53278255E-3,.50915E-3,0
ZY-1 02D,2019-059A,2026-06-09T23:01:38.519040,14.35457047,.00022617,98.3189,222.7001,118.0167,242.1248,0,U,44528,999,35330,-.2522483E-5,-.49E-6,0
TAURUS-1 (JINNIUZUO 1),2019-059C,2026-06-09T21:38:32.625600,14.72021947,.00077266,98.6416,325.2790,342.2544,17.8390,0,U,44530,999,35757,.86584321E-3,.5387E-4,0
ZHUHAI-1 03B,2019-060C,2026-06-09T21:45:23.768640,15.53686054,.00077984,97.5520,318.2817,347.6775,12.4286,0,U,44536,999,37519,.46826985E-3,.29931E-3,0
ZHUHAI-1 03D,2019-060E,2026-06-09T22:14:14.911872,15.49342880,.00068054,97.5382,310.4879,330.8701,29.2169,0,U,44538,999,37495,.5261417E-3,.28805E-3,0
ZHUHAI-1 03E,2019-060F,2026-06-09T21:44:09.536352,15.40831692,.00065032,97.5601,310.6026,57.3570,302.8303,0,U,44539,999,37464,.41578055E-3,.16989E-3,0
GAOFEN-7,2019-072A,2026-06-09T23:09:13.134240,15.21546902,.00179196,97.2433,222.7026,64.3433,295.9652,0,U,44703,999,36654,.1683869E-3,.3742E-4,0
JILIN-1 GAOFEN 2A,2019-075A,2026-06-09T18:56:05.275680,15.39118564,.00076555,97.4963,244.4072,109.0536,251.1539,0,U,44777,999,36374,.36983897E-3,.14274E-3,0
NINGXIA-1 1,2019-076A,2026-06-09T20:12:30.840768,14.02037506,.00102463,45.0040,212.6770,127.0722,233.1051,0,U,44779,999,33682,.16360493E-4,-.105E-5,0
NINGXIA-1 5,2019-076E,2026-06-09T22:14:37.394880,14.02085817,.00098332,45.0040,211.6422,116.1730,244.0116,0,U,44783,999,33675,.60025869E-4,-.38E-6,0
KL-ALPHA A,2019-077A,2026-06-09T21:20:08.863872,13.56042488,.00129017,88.9253,223.3625,123.9993,236.2389,0,U,44785,999,32474,.17385579E-4,.25E-6,0
CARTOSAT-3,2019-081A,2026-06-09T23:28:35.081184,15.19229818,.00125656,97.4308,222.9607,172.6360,187.5062,0,U,44804,999,36237,.16280514E-3,.3367E-4,0
JILIN-1 GAOFEN 2B,2019-086A,2026-06-09T20:14:08.563488,15.20630533,.00135109,97.4883,232.8803,351.7288,8.3722,0,U,44836,999,35937,.23313096E-3,.5056E-4,0
TIANQIN 1 (CAS-6),2019-093A,2026-06-09T22:18:40.439808,14.95403335,.0012881,97.7808,244.8222,79.3939,280.8732,0,U,44879,999,35096,.10679711E-3,.1123E-4,0
ETRSS-1,2019-093B,2026-06-09T22:31:28.909056,14.95827499,.00129053,97.7824,245.2844,79.2358,281.0315,0,U,44880,999,35097,.28423303E-4,.259E-5,0
TIANYAN 01,2019-093C,2026-06-09T23:26:43.994976,14.86509878,.00149831,97.7530,233.3849,108.0311,252.2539,0,U,44881,999,35034,.12668176E-3,.1069E-4,0
TIANYAN 02,2019-093D,2026-06-09T22:33:22.470624,15.05139802,.00144531,97.7930,255.6606,52.0204,308.2325,0,U,44882,999,35152,.46578104E-3,.6587E-4,0
