JILIN-1 GAOFEN 3A       
1 44312U 19032C   26160.91517927  .00011014  00000+0  35355-3 0  9995
2 44312  44.9761  36.9538 0006526 260.6371  99.3776 15.32473415386727
WT 1B                   
1 44316U 19032G   26160.93856625  .00008909  00000+0  33976-3 0  9998
2 44316  44.9726 100.5004 0009379 211.9670 148.0645 15.27043313385975
PROX-1                  
1 44339U 19036A   26160.69321210  .00011722  00000+0  11444-2 0  9999
2 44339  23.9926 164.3071 0005276 306.6021  53.3993 14.90432736372357
NPSAT1                  
1 44340U 19036B   26160.60569841  .00004488  00000+0  62348-3 0  9997
2 44340  23.9993 267.1376 0007868 121.1024 239.0245 14.74514746371373
FORMOSAT 7-3            
1 44343U 19036E   26160.51739095  .00003827  00000+0  21017-3 0  9994
2 44343  23.9985 231.3301 0000887 150.2032 209.8522 15.09750740382082
FORMOSAT 7-1            
1 44349U 19036L   26160.44561388  .00002438  00000+0  18360-3 0  9994
2 44349  23.9980  84.5814 0001023  90.4732 269.5886 14.96472068383496
FORMOSAT 7-4            
1 44350U 19036M   26160.26801725  .00002232  00000+0  16586-3 0  9998
2 44350  23.9968 147.8868 0001512  99.2720 260.7952 14.96465427382883
FORMOSAT 7-2            
1 44351U 19036N   26160.42372581  .00002099  00000+0  15447-3 0  9996
2 44351  23.9972 201.1555 0001042  96.3518 263.7102 14.96469029382429
FORMOSAT 7-6            
1 44353U 19036Q   26160.29018550  .00002452  00000+0  18482-3 0  9991
2 44353  23.9992  22.8667 0001192  20.8011 339.2538 14.96476149380635
FORMOSAT 7-5            
1 44358U 19036V   26160.73422875  .00002536  00000+0  19201-3 0  9997
2 44358  23.9998 318.6256 0000686  85.9693 274.0886 14.96486054381236
METEOR-M2 2             
1 44387U 19038A   26160.93906755  .00000268  00000+0  13566-3 0  9995
2 44387  98.9146 148.1173 0002252  60.1127 300.0275 14.24364704360267
GLOBAL-4                
1 44499U 19054E   26160.79692994  .00050915  00000+0  53278-3 0  9996
2 44499  45.0063 279.0222 0006478 294.1609  65.8611 15.63696220379208
ZY-1 02D                
1 44528U 19059A   26160.95947360 -.00000049  00000+0 -25225-5 0  9990
2 44528  98.3189 222.7001 0002261 118.0167 242.1248 14.35457047353309
TAURUS-1 (JINNIUZUO 1)  
1 44530U 19059C   26160.90176650  .00005387  00000+0  86584-3 0  9995
2 44530  98.6416 325.2790 0007726 342.2544  17.8390 14.72021947357578
ZHUHAI-1 03B            
1 44536U 19060C   26160.90652510  .00029931  00000+0  46827-3 0  9994
2 44536  97.5520 318.2817 0007798 347.6775  12.4286 15.53686054375193
ZHUHAI-1 03D            
1 44538U 19060E   26160.92656148  .00028805  00000+0  52614-3 0  9999
2 44538  97.5382 310.4879 0006805 330.8701  29.2169 15.49342880374954
ZHUHAI-1 03E            
1 44539U 19060F   26160.90566593  .00016989  00000+0  41578-3 0  9999
2 44539  97.5601 310.6026 0006503  57.3570 302.8303 15.40831692374646
GAOFEN-7                
1 44703U 19072A   26160.96473535  .00003742  00000+0  16839-3 0  9999
2 44703  97.2433 222.7026 0017919  64.3433 295.9652 15.21546902366546
JILIN-1 GAOFEN 2A       
1 44777U 19075A   26160.78894995  .00014274  00000+0  36984-3 0  9995
2 44777  97.4963 244.4072 0007655 109.0536 251.1539 15.39118564363741
NINGXIA-1 1             
1 44779U 19076A   26160.84202362 -.00000105  00000+0  16360-4 0  9992
2 44779  45.0040 212.6770 0010246 127.0722 233.1051 14.02037506336820
NINGXIA-1 5             
1 44783U 19076E   26160.92682170 -.00000038  00000+0  60026-4 0  9998
2 44783  45.0040 211.6422 0009833 116.1730 244.0116 14.02085817336759
KL-ALPHA A              
1 44785U 19077A   26160.88899148  .00000025  00000+0  17386-4 0  9997
2 44785  88.9253 223.3625 0012901 123.9993 236.2389 13.56042488324741
CARTOSAT-3              
1 44804U 19081A   26160.97818381  .00003367  00000+0  16281-3 0  9998
2 44804  97.4308 222.9607 0012565 172.6360 187.5062 15.19229818362371
JILIN-1 GAOFEN 2B       
1 44836U 19086A   26160.84315467  .00005056  00000+0  23313-3 0  9992
2 44836  97.4883 232.8803 0013510 351.7288   8.3722 15.20630533359373
TIANQIN 1 (CAS-6)       
1 44879U 19093A   26160.92963472  .00001123  00000+0  10680-3 0  9995
2 44879  97.7808 244.8222 0012881  79.3939 280.8732 14.95403335350967
ETRSS-1                 
1 44880U 19093B   26160.93852904  .00000259  00000+0  28423-4 0  9999
2 44880  97.7824 245.2844 0012905  79.2358 281.0315 14.95827499350975
TIANYAN 01              
1 44881U 19093C   26160.97689809  .00001069  00000+0  12668-3 0  9999
2 44881  97.7530 233.3849 0014983 108.0311 252.2539 14.86509878350348
TIANYAN 02              
1 44882U 19093D   26160.93984341  .00006587  00000+0  46578-3 0  9992
2 44882  97.7930 255.6606 0014453  52.0204 308.2325 15.05139802351526
